{
	"type": "Feature",
	"geometry": {
		"type": "LineString",
		"coordinates": [
			[
				-113.08237963,
				52.32390956,
				770.125
			],
			[
				-113.08224865,
				52.32307095,
				770.23
			],
			[
				-113.08211767,
				52.32223233,
				770.519
			],
			[
				-113.08198669,
				52.32139372,
				770.499
			],
			[
				-113.08185571,
				52.32055511,
				770.482
			],
			[
				-113.08172473,
				52.3197165,
				770.522
			],
			[
				-113.08159375,
				52.31887789,
				770.526
			],
			[
				-113.08155619,
				52.31822065,
				770.663
			],
			[
				-113.08151862,
				52.31756342,
				770.412
			],
			[
				-113.08152922,
				52.31745187,
				770.309
			],
			[
				-113.0815677,
				52.31732454,
				770.278
			],
			[
				-113.08169226,
				52.31717877,
				770.549
			],
			[
				-113.0821306,
				52.31685066,
				770.149
			],
			[
				-113.08256895,
				52.31652254,
				770.041
			],
			[
				-113.08270963,
				52.31637368,
				770.678
			],
			[
				-113.08276382,
				52.3161876,
				770.496
			],
			[
				-113.08280861,
				52.315787,
				770.538
			],
			[
				-113.08292193,
				52.31553979,
				770.752
			],
			[
				-113.08304692,
				52.31545072,
				770.102
			],
			[
				-113.08378965,
				52.31495849,
				770.159
			],
			[
				-113.08453238,
				52.31446626,
				770.054
			],
			[
				-113.08527511,
				52.31397403,
				770.887
			],
			[
				-113.08601784,
				52.3134818,
				770.696
			],
			[
				-113.08676057,
				52.31298956,
				770.957
			],
			[
				-113.0875033,
				52.31249733,
				770.65
			],
			[
				-113.08824603,
				52.3120051,
				770.162
			],
			[
				-113.08892502,
				52.31156034,
				770.173
			],
			[
				-113.08960401,
				52.31111558,
				770.503
			],
			[
				-113.09028301,
				52.31067081,
				770.441
			],
			[
				-113.090962,
				52.31022605,
				770.535
			],
			[
				-113.09179521,
				52.30970355,
				770.538
			],
			[
				-113.09262842,
				52.30918105,
				770.9
			],
			[
				-113.09346163,
				52.30865855,
				770.923
			],
			[
				-113.09429484,
				52.30813605,
				771.505
			],
			[
				-113.09512805,
				52.30761355,
				771.192
			],
			[
				-113.09596126,
				52.30709105,
				771.14
			],
			[
				-113.09679446,
				52.30656856,
				771.39
			],
			[
				-113.09762767,
				52.30604606,
				771.743
			],
			[
				-113.09846088,
				52.30552356,
				771.84
			],
			[
				-113.09929409,
				52.30500106,
				771.831
			],
			[
				-113.09942799,
				52.30487415,
				771.293
			],
			[
				-113.09995163,
				52.30416074,
				771.408
			],
			[
				-113.10047526,
				52.30344734,
				771.214
			],
			[
				-113.1009989,
				52.30273393,
				771.522
			],
			[
				-113.10152254,
				52.30202053,
				771.663
			],
			[
				-113.10204617,
				52.30130713,
				771.124
			],
			[
				-113.10257419,
				52.30049265,
				771.548
			],
			[
				-113.10310221,
				52.29967818,
				771.297
			],
			[
				-113.10363024,
				52.29886371,
				771.989
			],
			[
				-113.10415826,
				52.29804924,
				771.604
			],
			[
				-113.10468628,
				52.29723477,
				771.584
			],
			[
				-113.1052143,
				52.2964203,
				771.906
			],
			[
				-113.10574232,
				52.29560583,
				772.369
			],
			[
				-113.10627035,
				52.29479136,
				772.893
			],
			[
				-113.10679837,
				52.29397689,
				772.739
			],
			[
				-113.10732639,
				52.29316241,
				772.052
			],
			[
				-113.10785441,
				52.29234794,
				772.108
			],
			[
				-113.10838243,
				52.29153347,
				772.037
			],
			[
				-113.10891045,
				52.290719,
				772.16
			],
			[
				-113.10943848,
				52.28990453,
				772.183
			]
		],
		"bbox": null
	},
	"id": "vpm_2",
	"properties": {
		"id": "2",
		"name": "ACME 20 inch Lateral",
		"category": "lateral"
	},
	"bbox": null
}