{
	"type": "Feature",
	"geometry": {
		"type": "LineString",
		"coordinates": [
			[
				-113.36087359,
				52.3079367,
				855.089
			],
			[
				-113.3610256,
				52.30793685,
				855.754
			],
			[
				-113.36187722,
				52.30773541,
				855.813
			],
			[
				-113.36272885,
				52.30753396,
				855.581
			],
			[
				-113.36358047,
				52.30733252,
				855.726
			],
			[
				-113.36443209,
				52.30713107,
				855.971
			],
			[
				-113.36528372,
				52.30692963,
				855.576
			],
			[
				-113.36624806,
				52.30684706,
				855.793
			],
			[
				-113.36721241,
				52.30676449,
				855.513
			],
			[
				-113.36817676,
				52.30668192,
				855.351
			],
			[
				-113.36914111,
				52.30659935,
				855.658
			],
			[
				-113.37010546,
				52.30651678,
				855.533
			],
			[
				-113.37106981,
				52.3064342,
				855.928
			],
			[
				-113.37203416,
				52.30635163,
				855.766
			],
			[
				-113.37299851,
				52.30626906,
				855.533
			],
			[
				-113.37396286,
				52.30618649,
				855.964
			],
			[
				-113.37492721,
				52.30610392,
				855.266
			],
			[
				-113.37589156,
				52.30602135,
				855.087
			],
			[
				-113.3768559,
				52.30593878,
				855.135
			],
			[
				-113.37782025,
				52.30585621,
				855.457
			],
			[
				-113.3787846,
				52.30577363,
				855.542
			],
			[
				-113.37974895,
				52.30569106,
				855.424
			],
			[
				-113.3807133,
				52.30560849,
				855.699
			],
			[
				-113.38167765,
				52.30552592,
				854.797
			],
			[
				-113.382642,
				52.30544335,
				854.254
			],
			[
				-113.38360635,
				52.30536078,
				854.004
			],
			[
				-113.3845707,
				52.30527821,
				854.574
			],
			[
				-113.38553505,
				52.30519564,
				854.137
			],
			[
				-113.3861248,
				52.30514501,
				854.789
			],
			[
				-113.38708453,
				52.3050633,
				854.572
			],
			[
				-113.38804425,
				52.30498159,
				854.897
			],
			[
				-113.38900398,
				52.30489988,
				854.991
			],
			[
				-113.3899637,
				52.30481817,
				854.838
			],
			[
				-113.39092343,
				52.30473646,
				854.591
			],
			[
				-113.39188315,
				52.30465475,
				854.392
			],
			[
				-113.39284288,
				52.30457304,
				854.118
			],
			[
				-113.39380261,
				52.30449133,
				854.067
			],
			[
				-113.39476233,
				52.30440961,
				853.635
			],
			[
				-113.39572206,
				52.3043279,
				853.352
			],
			[
				-113.39668178,
				52.30424619,
				853.191
			],
			[
				-113.39764151,
				52.30416448,
				853.635
			],
			[
				-113.39860123,
				52.30408277,
				853.141
			],
			[
				-113.39956096,
				52.30400106,
				853.104
			],
			[
				-113.40052068,
				52.30391935,
				853.927
			],
			[
				-113.4012619,
				52.30369586,
				853.465
			],
			[
				-113.40200312,
				52.30347238,
				853.425
			],
			[
				-113.40274434,
				52.30324889,
				853.217
			],
			[
				-113.40348556,
				52.30302541,
				853.145
			],
			[
				-113.40447466,
				52.30293334,
				853.766
			],
			[
				-113.40546376,
				52.30284126,
				853.555
			],
			[
				-113.40645285,
				52.30274919,
				853.734
			],
			[
				-113.40744195,
				52.30265712,
				853.572
			],
			[
				-113.40843104,
				52.30256505,
				853.329
			],
			[
				-113.40942014,
				52.30247297,
				853.148
			]
		],
		"bbox": null
	},
	"id": "vpm_3",
	"properties": {
		"id": "3",
		"name": "ACME 16 inch Lateral",
		"category": "lateral"
	},
	"bbox": null
}